[{"OBJECT_NAME":"STARLINK-5930","OBJECT_ID":"2023-037Q","EPOCH":"2026-03-09T23:23:47.515200","MEAN_MOTION":14.98311549,"ECCENTRICITY":0.00030976,"INCLINATION":69.9994,"RA_OF_ASC_NODE":303.587,"ARG_OF_PERICENTER":265.0887,"MEAN_ANOMALY":94.9918,"EPHEMERIS_TYPE":0,"CLASSIFICATION_TYPE":"U","NORAD_CAT_ID":55928,"ELEMENT_SET_NO":999,"REV_AT_EPOCH":16353,"BSTAR":0.00013686691,"MEAN_MOTION_DOT":1.54e-5,"MEAN_MOTION_DDOT":0},{"OBJECT_NAME":"SITRO-AIS 15","OBJECT_ID":"2024-199D","EPOCH":"2026-03-09T21:41:54.706560","MEAN_MOTION":14.9706426,"ECCENTRICITY":0.00074523,"INCLINATION":97.3312,"RA_OF_ASC_NODE":274.4424,"ARG_OF_PERICENTER":51.6231,"MEAN_ANOMALY":308.566,"EPHEMERIS_TYPE":0,"CLASSIFICATION_TYPE":"U","NORAD_CAT_ID":61738,"ELEMENT_SET_NO":999,"REV_AT_EPOCH":11696,"BSTAR":0.0003624053,"MEAN_MOTION_DOT":4.126e-5,"MEAN_MOTION_DDOT":0}]
